{
  "type": "FeatureCollection",
  "features": [
    {
      "type": "Feature",
      "properties": {
        "norad_id": 66324,
        "name": "STARLINK-35506",
        "group": "last-30-days",
        "lat": 1.6803978557318182,
        "lon": 27.179666763766477,
        "alt_km": 414.0157670817907,
        "timestamp": "2025-12-05T18:53:12.094659+00:00",
        "meta_object_name": "STARLINK-35506",
        "meta_object_id": "2025-253F",
        "meta_epoch": "2025-12-03T12:46:12.432576",
        "meta_mean_motion": 15.5059009,
        "meta_eccentricity": 8.705e-05,
        "meta_inclination": 43.0006,
        "meta_ra_of_asc_node": 38.5692,
        "meta_arg_of_pericenter": 276.2742,
        "meta_mean_anomaly": 83.8019,
        "meta_ephemeris_type": 0,
        "meta_classification_type": "U",
        "meta_norad_cat_id": 66324,
        "meta_element_set_no": 999,
        "meta_rev_at_epoch": 550,
        "meta_bstar": 0.00045167229,
        "meta_mean_motion_dot": 0.00026255,
        "meta_mean_motion_ddot": 0,
        "tle_line1": "1 66324U 25253F   25337.53208834  .00026255  00000+0  45167-3 0  9996",
        "tle_line2": "2 66324  43.0006  38.5692 0000870 276.2742  83.8019 15.50590090  5507"
      },
      "geometry": {
        "type": "Point",
        "coordinates": [
          27.179666763766477,
          1.6803978557318182
        ]
      }
    },
    {
      "type": "Feature",
      "properties": {
        "norad_id": 66325,
        "name": "STARLINK-35504",
        "group": "last-30-days",
        "lat": -41.252628530630695,
        "lon": -84.1064390872606,
        "alt_km": 446.5205739698613,
        "timestamp": "2025-12-05T18:53:12.094670+00:00",
        "meta_object_name": "STARLINK-35504",
        "meta_object_id": "2025-253G",
        "meta_epoch": "2025-12-05T06:00:02.000160",
        "meta_mean_motion": 15.40656386,
        "meta_eccentricity": 0.00012203,
        "meta_inclination": 43.0004,
        "meta_ra_of_asc_node": 28.737,
        "meta_arg_of_pericenter": 253.1561,
        "meta_mean_anomaly": 260.557,
        "meta_ephemeris_type": 0,
        "meta_classification_type": "U",
        "meta_norad_cat_id": 66325,
        "meta_element_set_no": 999,
        "meta_rev_at_epoch": 572,
        "meta_bstar": 0.0009792853,
        "meta_mean_motion_dot": 0.00040763,
        "meta_mean_motion_ddot": 0,
        "tle_line1": "1 66325U 25253G   25339.25002315  .00040763  00000+0  97929-3 0  9997",
        "tle_line2": "2 66325  43.0004  28.7370 0001220 253.1561 260.5570 15.40656386  5723"
      },
      "geometry": {
        "type": "Point",
        "coordinates": [
          -84.1064390872606,
          -41.252628530630695
        ]
      }
    },
    {
      "type": "Feature",
      "properties": {
        "norad_id": 66326,
        "name": "STARLINK-35479",
        "group": "last-30-days",
        "lat": 8.150778759931027,
        "lon": 34.19571681929275,
        "alt_km": 412.72642397008804,
        "timestamp": "2025-12-05T18:53:12.094681+00:00",
        "meta_object_name": "STARLINK-35479",
        "meta_object_id": "2025-253H",
        "meta_epoch": "2025-12-04T15:00:38.013408",
        "meta_mean_motion": 15.50615042,
        "meta_eccentricity": 0.0001415,
        "meta_inclination": 43.0005,
        "meta_ra_of_asc_node": 32.1514,
        "meta_arg_of_pericenter": 287.7439,
        "meta_mean_anomaly": 72.3267,
        "meta_ephemeris_type": 0,
        "meta_classification_type": "U",
        "meta_norad_cat_id": 66326,
        "meta_element_set_no": 999,
        "meta_rev_at_epoch": 567,
        "meta_bstar": 0.001591,
        "meta_mean_motion_dot": 0.00094247,
        "meta_mean_motion_ddot": 0,
        "tle_line1": "1 66326U 25253H   25338.62543997  .00094247  00000+0  15910-2 0  9999",
        "tle_line2": "2 66326  43.0005  32.1514 0001415 287.7439  72.3267 15.50615042  5678"
      },
      "geometry": {
        "type": "Point",
        "coordinates": [
          34.19571681929275,
          8.150778759931027
        ]
      }
    },
    {
      "type": "Feature",
      "properties": {
        "norad_id": 66327,
        "name": "STARLINK-35507",
        "group": "last-30-days",
        "lat": -1.0537133514246813,
        "lon": 24.261701110049465,
        "alt_km": 413.05340802032333,
        "timestamp": "2025-12-05T18:53:12.094696+00:00",
        "meta_object_name": "STARLINK-35507",
        "meta_object_id": "2025-253J",
        "meta_epoch": "2025-12-05T03:26:08.646432",
        "meta_mean_motion": 15.50562768,
        "meta_eccentricity": 0.00016961,
        "meta_inclination": 43.0017,
        "meta_ra_of_asc_node": 29.1602,
        "meta_arg_of_pericenter": 303.146,
        "meta_mean_anomaly": 56.9237,
        "meta_ephemeris_type": 0,
        "meta_classification_type": "U",
        "meta_norad_cat_id": 66327,
        "meta_element_set_no": 999,
        "meta_rev_at_epoch": 575,
        "meta_bstar": 0.0056448188,
        "meta_mean_motion_dot": 0.00345669,
        "meta_mean_motion_ddot": 0,
        "tle_line1": "1 66327U 25253J   25339.14315563  .00345669  00000+0  56448-2 0  9992",
        "tle_line2": "2 66327  43.0017  29.1602 0001696 303.1460  56.9237 15.50562768  5754"
      },
      "geometry": {
        "type": "Point",
        "coordinates": [
          24.261701110049465,
          -1.0537133514246813
        ]
      }
    },
    {
      "type": "Feature",
      "properties": {
        "norad_id": 66328,
        "name": "STARLINK-35460",
        "group": "last-30-days",
        "lat": -42.93599945285387,
        "lon": -67.57042870871267,
        "alt_km": 446.60710331253813,
        "timestamp": "2025-12-05T18:53:12.094707+00:00",
        "meta_object_name": "STARLINK-35460",
        "meta_object_id": "2025-253K",
        "meta_epoch": "2025-12-05T06:00:02.000160",
        "meta_mean_motion": 15.40726515,
        "meta_eccentricity": 0.00015187,
        "meta_inclination": 43.0003,
        "meta_ra_of_asc_node": 28.7042,
        "meta_arg_of_pericenter": 290.4518,
        "meta_mean_anomaly": 235.6515,
        "meta_ephemeris_type": 0,
        "meta_classification_type": "U",
        "meta_norad_cat_id": 66328,
        "meta_element_set_no": 999,
        "meta_rev_at_epoch": 582,
        "meta_bstar": -0.0015618537,
        "meta_mean_motion_dot": -0.0006505,
        "meta_mean_motion_ddot": 0,
        "tle_line1": "1 66328U 25253K   25339.25002315 -.00065050  00000+0 -15619-2 0  9993",
        "tle_line2": "2 66328  43.0003  28.7042 0001518 290.4518 235.6515 15.40726515  5822"
      },
      "geometry": {
        "type": "Point",
        "coordinates": [
          -67.57042870871267,
          -42.93599945285387
        ]
      }
    },
    {
      "type": "Feature",
      "properties": {
        "norad_id": 66329,
        "name": "STARLINK-35505",
        "group": "last-30-days",
        "lat": 0.8249993023200823,
        "lon": 26.270612869035357,
        "alt_km": 413.1204615605111,
        "timestamp": "2025-12-05T18:53:12.094717+00:00",
        "meta_object_name": "STARLINK-35505",
        "meta_object_id": "2025-253L",
        "meta_epoch": "2025-12-04T10:25:17.612832",
        "meta_mean_motion": 15.50609866,
        "meta_eccentricity": 0.0002419,
        "meta_inclination": 43.0053,
        "meta_ra_of_asc_node": 33.3018,
        "meta_arg_of_pericenter": 270.3713,
        "meta_mean_anomaly": 89.687,
        "meta_ephemeris_type": 0,
        "meta_classification_type": "U",
        "meta_norad_cat_id": 66329,
        "meta_element_set_no": 999,
        "meta_rev_at_epoch": 564,
        "meta_bstar": 0.0026928,
        "meta_mean_motion_dot": 0.00161104,
        "meta_mean_motion_ddot": 0,
        "tle_line1": "1 66329U 25253L   25338.43423163  .00161104  00000+0  26928-2 0  9991",
        "tle_line2": "2 66329  43.0053  33.3018 0002419 270.3713  89.6870 15.50609866  5649"
      },
      "geometry": {
        "type": "Point",
        "coordinates": [
          26.270612869035357,
          0.8249993023200823
        ]
      }
    },
    {
      "type": "Feature",
      "properties": {
        "norad_id": 66330,
        "name": "STARLINK-35512",
        "group": "last-30-days",
        "lat": -9.09655540708812,
        "lon": -144.31560369635952,
        "alt_km": 443.7565945268025,
        "timestamp": "2025-12-05T18:53:12.094727+00:00",
        "meta_object_name": "STARLINK-35512",
        "meta_object_id": "2025-253M",
        "meta_epoch": "2025-12-05T04:02:58.634016",
        "meta_mean_motion": 15.40738259,
        "meta_eccentricity": 0.00018278,
        "meta_inclination": 42.9965,
        "meta_ra_of_asc_node": 29.3535,
        "meta_arg_of_pericenter": 134.3385,
        "meta_mean_anomaly": 225.7621,
        "meta_ephemeris_type": 0,
        "meta_classification_type": "U",
        "meta_norad_cat_id": 66330,
        "meta_element_set_no": 999,
        "meta_rev_at_epoch": 575,
        "meta_bstar": 0.0021738908,
        "meta_mean_motion_dot": 0.00091722,
        "meta_mean_motion_ddot": 0,
        "tle_line1": "1 66330U 25253M   25339.16873419  .00091722  00000+0  21739-2 0  9990",
        "tle_line2": "2 66330  42.9965  29.3535 0001827 134.3385 225.7621 15.40738259  5753"
      },
      "geometry": {
        "type": "Point",
        "coordinates": [
          -144.31560369635952,
          -9.09655540708812
        ]
      }
    }
  ]
}